{
    "links": {
        "self": "http://www.neowsapp.com/rest/v1/neo/3843294?api_key=iIulBulltgU6a56xZRHN4H3l9WmuAYTsLGpBGhQ2"
    },
    "id": "3843294",
    "neo_reference_id": "3843294",
    "name": "(2019 NK6)",
    "designation": "2019 NK6",
    "nasa_jpl_url": "http://ssd.jpl.nasa.gov/sbdb.cgi?sstr=3843294",
    "absolute_magnitude_h": 22.9,
    "estimated_diameter": {
        "kilometers": {
            "estimated_diameter_min": 0.0699125232,
            "estimated_diameter_max": 0.1563291544
        },
        "meters": {
            "estimated_diameter_min": 69.9125232246,
            "estimated_diameter_max": 156.3291544087
        },
        "miles": {
            "estimated_diameter_min": 0.0434416145,
            "estimated_diameter_max": 0.097138403
        },
        "feet": {
            "estimated_diameter_min": 229.3718026961,
            "estimated_diameter_max": 512.8909429502
        }
    },
    "is_potentially_hazardous_asteroid": false,
    "close_approach_data": [
        {
            "close_approach_date": "2019-06-10",
            "close_approach_date_full": "2019-Jun-10 21:59",
            "epoch_date_close_approach": 1560203940000,
            "relative_velocity": {
                "kilometers_per_second": "7.8745303529",
                "kilometers_per_hour": "28348.3092704063",
                "miles_per_hour": "17614.5369463811"
            },
            "miss_distance": {
                "astronomical": "0.1758146448",
                "lunar": "68.3918968272",
                "kilometers": "26301496.376886576",
                "miles": "16342992.0139877088"
            },
            "orbiting_body": "Earth"
        }
    ],
    "orbital_data": {
        "orbit_id": "2",
        "orbit_determination_date": "2019-07-14 05:58:36",
        "first_observation_date": "2019-06-10",
        "last_observation_date": "2019-07-12",
        "data_arc_in_days": 32,
        "observations_used": 17,
        "orbit_uncertainty": "7",
        "minimum_orbit_intersection": ".108551",
        "jupiter_tisserand_invariant": "3.523",
        "epoch_osculation": "2459000.5",
        "eccentricity": ".4898589580188773",
        "semi_major_axis": "2.14789440878437",
        "inclination": "10.78446832747939",
        "ascending_node_longitude": "110.1422754422336",
        "orbital_period": "1149.788122772801",
        "perihelion_distance": "1.095729091762686",
        "perihelion_argument": "147.8562157135335",
        "aphelion_distance": "3.200059725806053",
        "perihelion_time": "2458637.475903565418",
        "mean_anomaly": "113.6632672820484",
        "mean_motion": ".3131011643535097",
        "equinox": "J2000",
        "orbit_class": {
            "orbit_class_type": "AMO",
            "orbit_class_description": "Near-Earth asteroid orbits similar to that of 1221 Amor",
            "orbit_class_range": "1.017 AU < q (perihelion) < 1.3 AU"
        }
    },
    "is_sentry_object": false
}